[{"OBJECT_NAME":"USA 119","OBJECT_ID":"1996-029A","EPOCH":"2026-03-09T10:00:09.129312","MEAN_MOTION":13.45886981,"ECCENTRICITY":0.0846389,"INCLINATION":63.3196,"RA_OF_ASC_NODE":93.119,"ARG_OF_PERICENTER":47.6314,"MEAN_ANOMALY":319.3281,"EPHEMERIS_TYPE":0,"CLASSIFICATION_TYPE":"U","NORAD_CAT_ID":23893,"ELEMENT_SET_NO":999,"REV_AT_EPOCH":9184,"BSTAR":0.00029025737,"MEAN_MOTION_DOT":1.64e-5,"MEAN_MOTION_DDOT":0},{"OBJECT_NAME":"STARLINK-31786","OBJECT_ID":"2024-091U","EPOCH":"2026-03-09T07:26:11.818464","MEAN_MOTION":15.30193136,"ECCENTRICITY":0.00012428,"INCLINATION":53.1616,"RA_OF_ASC_NODE":28.8329,"ARG_OF_PERICENTER":65.6033,"MEAN_ANOMALY":294.5097,"EPHEMERIS_TYPE":0,"CLASSIFICATION_TYPE":"U","NORAD_CAT_ID":59771,"ELEMENT_SET_NO":999,"REV_AT_EPOCH":10294,"BSTAR":-6.725755e-6,"MEAN_MOTION_DOT":-5.58e-6,"MEAN_MOTION_DDOT":0}]
